QIANFAN-33              
1 61566U 24185Q   25281.34317876  .00000524  00000+0  36949-3 0  9995
2 61566  88.9739  86.0979 0007550 154.9345 205.2199 13.96466262 60039
QIANFAN-34              
1 61567U 24185R   25281.29119829  .00000524  00000+0  33384-3 0  9998
2 61567  88.9718  85.7542 0006448 159.9473 200.1961 14.02218061 60188
QIANFAN-35              
1 61568U 24185S   25281.31413240  .00001204  00000+0  48162-3 0  9992
2 61568  88.9746  84.5574 0008224 129.6237 230.5685 14.27799044 60843
QIANFAN-36              
1 61569U 24185T   25281.26898402  .00000160  00000+0  21358-3 0  9992
2 61569  88.9726  87.8643 0004741 218.7872 141.2942 13.55561515 59055
QIANFAN-37              
1 62238U 24232B   25281.29726981  .00000134  00000+0  18974-3 0  9995
2 62238  89.0005  47.9227 0001125  98.6779 261.4500 13.50968879 90330
QIANFAN-38              
1 62239U 24232C   25281.32200233  .00000114  00000+0  15806-3 0  9996
2 62239  89.0012  47.8316 0015065  31.1616 329.0425 13.50977421 90393
QIANFAN-39              
1 62240U 24232D   25281.34474957  .00000695  00000+0  28918-3 0  9998
2 62240  89.0011  44.7735 0014073 295.3203  64.6532 14.25279916 92074
QIANFAN-40              
1 62241U 24232E   25281.35488749  .00000129  00000+0  18049-3 0  9990
2 62241  89.0041  47.3946 0014324  39.1408 321.0776 13.50977041 90766
